LON,LAT,NUMBER,STREET,UNIT,CITY,DISTRICT,REGION,POSTCODE,ID,HASH
4.2916923,50.7892445,43,Meerweg,,Sint-Pieters-Leeuw,,,1601,,c1ddefb54e422912
3.5483183,51.032398,7,Cyriel Buyssestraat,,Nevele,,,9850,,1721f54889062b95
3.208882,51.2222238,22,Sint-Pieterszuidstraat,,Brugge,,,8000,,d13a3341e6577328
4.6254821,50.9822325,92,Grote Appelstraat,,Haacht,,,3150,,b71b448bd650c319
4.3490799,50.8395987,73,Rue Blaes,,Bruxelles,,,1000,,7eadb89d253ed776
3.756492,50.795426,19,Edg. Tinelstraat,,Brakel,,,9660,,9f64374e2a02bf56
4.1017504,50.8626385,11,Elzenlaan,,Liedekerke,,,1770,,6468f3bb14289ebe
5.4262492,50.8631688,12,Eeuwfeeststraat,,Kortessem,,,3721,,1a34db21f77c2905
3.6338341,50.8673717,94,Ohiostraat,,Oudenaarde,,,9700,,e881b169d3ae9a1c
4.8787307,51.0888521,23,Zandstraat,,Westerlo,,,2260,,f52dc53f4e4d1c4f
3.6174069,50.8688969,21,Serpentsstraat,,Oudenaarde,,,9700,,dd6dbd1e41c7e1e7
4.2574641,50.874485,53,Jozef Mertensstraat,,Dilbeek,,,1702,,8c2998fa6f95d40f
4.6655213,51.1522319,53,Legebaan,,Nijlen,,,2560,,e264481dd3773b3e
4.1017861,51.0325188,11,Veerstraat,,Dendermonde,,,9200,,a14c6fb3e076999b
4.4045654,50.8417861,441,Georges Henrilaan,,Sint-Lambrechts-Woluwe,,,1200,,b3616bcce9332bf3
4.3163376,50.8473445,43,Sylvain Denayerstraat,,Anderlecht,,,1070,,be39b0dba0274781
4.2352869,50.8468062,38,Begijnenborrestraat,,Dilbeek,,,1700,,cb57d607bce834d7
3.2190617,50.8186755,510,Kortrijkstraat,,Wevelgem,,,8560,,f9c3a6bcb9863f58
4.4051728,50.8794558,64,Sint-Vincentiusstraat,,Evere,,,1140,,ec4c2d6daa1f6124
4.3270421,50.853409,18,Rue de la Campine,,Molenbeek-Saint-Jean,,,1080,,678f8bc79d793c1e
4.3515261,51.1767936,31,Dokter Coenstraat,,Antwerpen,,,2660,,0a3ed686f18f12a7
3.1780781,50.8122596,36,Toekomststraat,,Wevelgem,,,8560,,acc4881b7f26e389
3.1369778,51.3181993,202,Zeedijk,,Blankenberge,,,8370,,4ab38d7b27638d28
5.2014054,51.2182132,132,Kiezelweg,,Mol,,,2400,,599eb0eaaf3bfd5b
3.0647055,51.202232,15,Vaartdijk-Noord,,Jabbeke,,,8490,,d561f472ead9ed18
4.7106155,50.8618653,45,Langendaallaan,,Leuven,,,3001,,e7d93efd85678599
4.4402379,50.8960812,19,Frans Degeyndtgaarde,,Machelen,,,1831,,ee1cd5996653a481
3.389168,50.8418813,2,Dragonderdreef,,Anzegem,,,8570,,87f9ac77d777a61e
4.1462251,50.867485,59,Sibbekensveldstraat,,Ternat,,,1742,,0146d16dfe821af9
4.738067,50.887518,50,Molenstraat,,Leuven,,,3010,,97c9dbdbf0534099
4.429586,51.2319303,33,Rupelstraat,,Antwerpen,,,2060,,2625c8680e8d967c
4.9047258,51.1382248,2,Gemeentestraat,,Westerlo,,,2260,,7f897e9e7a1a5825
4.5777336,51.0394743,4,Dokter Cornilstraat,,Putte,,,2580,,5599a3da18103e85
4.4316019,50.9113385,13,Woluwestraat,,Machelen,,,1830,,d31489cf6e377ebf
4.2790174,50.8373874,28,Avenue de la Fécondité,,Anderlecht,,,1070,,2fda2e431ec55690
4.3117025,50.7508551,32,Winterperre,,Beersel,,,1653,,4127fdead4240fbf
4.6256905,51.0591432,25A,Waversesteenweg,,Putte,,,2580,,f0cc76d2e8118e7d
5.0715367,51.1628189,189,Bel,,Geel,,,2440,,c63ab5fbb6746d9d
4.6979373,50.8797836,49A,Brusselsestraat,,Leuven,,,3000,,5a615a6b0090b447
4.3322994,50.8787465,25,Ontmijnerslaan,,Jette,,,1090,,e94faa9444fa5ddb
4.5570529,50.8345082,2,Sint-Pauluslaan,,Tervuren,,,3080,,ec3908aef67dd7df
3.5465379,51.2330313,20,Kruiskenstraat,,Sint-Laureins,,,9980,,8221a458bd26240a
4.2949209,51.1787442,233,Warandestraat,,Kruibeke,,,9150,,9fa133a49b1877fe
4.6967713,51.0250262,17,Grote Kerkweg,,Heist-op-den-Berg,,,2223,,d17b8474e1223aca
2.8100183,51.185217,137,Leopoldlaan,,Middelkerke,,,8430,,03ccff003b329704
3.9298302,51.0112854,48,Hekkergemstraat,,Wichelen,,,9260,,8623e11a57d24f47
4.3362111,50.8899833,10,Jean-Baptiste Depairelaan,,Brussel,,,1020,,38a89000c31c08fa
3.7650259,51.0106807,27,Ginstdreef,,Merelbeke,,,9820,,6cfaec7eeee97074
4.2832792,50.7921177,26,Generaal Lemanstraat,,Sint-Pieters-Leeuw,,,1600,,31e48bb6b32343e2
2.7232874,50.853057,34,Babbelaarstraat,,Poperinge,,,8970,,e7b0806ccedff40f
5.2149952,51.0728149,23,Tennisstraat,,Beringen,,,3582,,f3f44767ae19ac08
4.3983237,50.8711565,33,Adolf De Brandtstraat,,Evere,,,1140,,0bdc4878123cd229
4.2974946,50.8444273,17,Avenue Commandant Vander Meeren,,Anderlecht,,,1070,,9a1ee3fa1f633fb9
4.4328208,51.2466013,91,Bordink,,Antwerpen,,,2170,,263819f26c23bfb2
4.0495344,50.9112966,202,Ninovesteenweg,,Aalst,,,9320,,38f32712303e3f71
4.034618,50.8392025,271,Pamelstraat,,Ninove,,,9400,,706d74ccf179275c
3.252791,50.814944,56,Pottelberg,,Kortrijk,,,8500,,18b44be4b81952aa
4.4336271,51.2562996,37,Victor Govaerslaan,,Antwerpen,,,2170,,8b02ce0fa46d6a24
5.2952909,51.2222047,29,Kruisbekstraat,,Lommel,,,3920,,950ee64c93e2a3c2
4.8944087,51.1794814,10,Koperstraat,,Olen,,,2250,,99e9469e1d6dbeb6
4.9769067,51.1657904,36,Elsumerblok,,Geel,,,2440,,b693b8ab7fddd78b
2.9440925,51.2303266,51,Thomas Van Loostraat,,Oostende,,,8400,,85eab62a736503ce
4.5468447,51.0484372,27,Heiken,,Sint-Katelijne-Waver,,,2861,,f2c964a077791b1b
4.5398208,50.8851452,22,Dr. V. De Walsplein,,Kortenberg,,,3070,,f300131b393a8541
5.3086009,50.9469983,22,Overdemerstraat,,Hasselt,,,3511,,c9afda67b5f8cded
5.4813764,51.0187509,1A,Anjerstraat,,Houthalen-Helchteren,,,3530,,28114e5bb7cfb850
5.0240278,50.9942878,23,Grasbos,,Diest,,,3294,,085df139d4dd32be
3.9003038,51.1297779,450,Rechtstraat,,Lokeren,,,9160,,8e98231b73dd51df
4.4615606,51.2329484,326,Bisschoppenhoflaan,,Antwerpen,,,2100,,d282e030940b6cf9
4.3774344,50.8466529,17,Orteliusstraat,,Brussel,,,1000,,c3277750de5aa65b
3.1930998,51.1579746,2,Mezenweg,,Zedelgem,,,8210,,3690e5f8cb2864eb
3.2459497,50.9128207,10,Schrijnwerkersstraat,,Ingelmunster,,,8770,,1fdb9cef5855970d
4.6323749,51.0565653,370,Mechelbaan,,Putte,,,2580,,2cbe315b40694e66
4.1917746,50.9166572,8,Pottenbakkersweg,,Asse,,,1730,,0b633adcce85afbf
3.9647101,51.1411607,2,Zuidledestraat,,Lokeren,,,9160,,32ed7d0de3385062
4.3435952,50.8798377,13,Fineaustraat,,Brussel,,,1020,,1dc7513754435155
4.4284503,50.9211175,117,Parkstraat,,Vilvoorde,,,1800,,84de1410c4b7aaac
4.4685537,51.0307639,11,Bethaniënstraat,,Mechelen,,,2800,,f4fb20ce604eb312
4.65452,51.1626753,27B,Wijngaardberg,,Nijlen,,,2560,,d4cad689b611c079
2.9190039,51.2303535,34,Kapellestraat,,Oostende,,,8400,,d1f47467680b2ac9
4.4191268,51.2186641,16,Breydelstraat,,Antwerpen,,,2018,,9990226eceaab764
4.3535261,50.9129306,50,Singel,,Grimbergen,,,1853,,1239d6e9977c8b26
3.4211818,50.8889251,21,René Sabbestraat,,Waregem,,,8790,,98cec52ef17d989e
4.0371702,50.9385505,19,Nieuwstraat,,Aalst,,,9300,,07d47ab018cfa5d1
3.9669005,51.1064797,4,Oscar Van Rumststraat,,Lokeren,,,9160,,ae5716504a2be61e
4.6940983,50.976919,12B,Hinderenberg,,Rotselaar,,,3118,,f0924abc8b48b391
4.5769738,51.3036759,40,Dremelheidebaan,,Brecht,,,2960,,24a403a5b90818ec
4.4180715,51.2217411,78,Van Maerlantstraat,,Antwerpen,,,2060,,55dd2725e057857f
3.9495401,51.1750155,44A,Hospicestraat,,Moerbeke,,,9180,,55a58423572ea18f
5.515318,50.8797718,87,Winterstraat,,Bilzen,,,3740,,db548866d1d7ef4d
4.379152,50.8344039,83B,Graystraat,,Elsene,,,1050,,e6d280575e59dda6
3.1382594,50.9641946,42,Riddersstraat,,Roeselare,,,8800,,792ebc1859299253
4.0605464,50.9311554,82,Brusselse steenweg,,Aalst,,,9300,,d2d436e0ca66b595
4.4459714,51.2559376,189,Moeshofstraat,,Antwerpen,,,2170,,eaef35af176aafb6
3.9121081,50.8906062,36,Goezestraat,,Herzele,,,9551,,6811c6c5288dd2e8
5.2615053,50.9442449,64,Meybroekstraat,,Hasselt,,,3510,,63ccf778dfc915c1
3.4183135,50.8919862,88,Roger Vansteenbruggestraat,,Waregem,,,8790,,f8edb764f3f9ac10
4.5168231,51.0959735,10,Oude Liersebaan,,Duffel,,,2570,,95568d3a8c77f389
4.4407405,51.1515322,164,Boerenlegerstraat,,Edegem,,,2650,,465e73cc14736b85
3.7578136,51.0913971,131,Gentstraat,,Gent,,,9041,,bff37bc63da1f1ad
4.0069163,51.0593127,49,Heikant,,Zele,,,9240,,a3130c09bfa7116b
3.8227147,50.8717962,75A,Grotenbergestraat,,Zottegem,,,9620,,63420986b0f78209
4.4070037,50.805268,4,Berkenlaan,,Watermaal-Bosvoorde,,,1170,,cffa76748669151b
3.0915752,51.1155877,51,Aartrijksestraat,,Zedelgem,,,8211,,a0794619f6af001d
4.7588264,51.3523114,18,Leopoldstraat,,Rijkevorsel,,,2310,,a7dadea5ab656a8e
4.3352781,51.1114966,63,Jozef Wauterslaan,,Niel,,,2845,,d1989ff2ed01360e
4.3230013,50.8837326,38,Rue Frédéric Mohrfeld,,Jette,,,1090,,d22ccd99b63adc71
5.6951245,50.9866264,21,Kruindersweg,,Maasmechelen,,,3630,,1b9a9e9b074314ec
3.9081282,51.034993,70,Nerenweg,,Laarne,,,9270,,cbe8a9afa76e0835
3.2817848,51.3500472,536,Zeedijk-Albertstrand,,Knokke-Heist,,,8300,,ca02adaab1c441ea
4.3712609,50.8231202,42,Dalstraat,,Brussel,,,1000,,9164aa4a77964ca9
3.7282363,51.0522338,1,Geraard de Duivelstraat,,Gent,,,9000,,817af2643be8a522
3.2504515,50.9370968,252A,Bruggestraat,,Ingelmunster,,,8770,,084d68494db357f8
4.8563371,51.3229857,64,Gasthuisstraat,,Beerse,,,2340,,7f76e70404be2b3d
4.7786499,51.3182245,11,Sterstraat,,Rijkevorsel,,,2310,,b3c8acaa85630348
4.3274878,51.3607813,54,Kalmthoutsebaan,,Antwerpen,,,2040,,7a3d988be749e999
4.5508544,51.361423,29,Mansionstraat,,Wuustwezel,,,2990,,6301bec3da1cba39
3.4360296,50.8930232,2,Voldersstraat,,Waregem,,,8790,,78060d58a768bce9
3.2554946,51.3434691,300,Zeedijk-Duinbergen,,Knokke-Heist,,,8301,,9f2d67b06d220933
3.7413098,51.1695802,2,Vaartstraat-West,,Evergem,,,9940,,2f45af5e5743b5ec
3.8557269,50.7692027,106A,Marktweg,,Geraardsbergen,,,9500,,ebb4ef2400890604
4.4740783,51.1238568,51,Duffelshoek,,Kontich,,,2550,,386055515622cabd
4.2073545,50.7177893,335B,Arthur Puesstraat,,Halle,,,1502,,6a71cf077398fc49
3.3051406,50.8303022,23,Spinnerijstraat,,Harelbeke,,,8530,,e43abc25f4fd8a97
4.8946864,51.2442334,13,Gierlebaan,,Kasterlee,,,2460,,e0696a39e651627e
4.3319168,50.8104328,49,Minervalaan,,Vorst,,,1190,,fc926b163a1d2397
5.723223,51.1477896,25A,Broekstraat,,Kinrooi,,,3640,,819abbb82afe9da6
4.3202168,51.2176467,34,Melselestraat,,Zwijndrecht,,,2070,,f735df4a577cd060
4.3346446,50.7717193,10,Fons Dehaesstraat,,Linkebeek,,,1630,,539ffb58975f997f
4.7373067,50.8637308,24,Hoogland,,Leuven,,,3000,,ef77eda21c599ddb
4.2640225,50.8571943,135,Elegemstraat,,Dilbeek,,,1700,,e7fae884b4a266a2
3.7459183,51.0368035,42,Hilarius Bertolfstraat,,Gent,,,9050,,20f9f045129cf3ae
4.4418717,51.1563894,32,Drie Eikenstraat,,Edegem,,,2650,,b315cb6d9f5cd6f7
5.4469505,50.9223435,4,Lutselusplein,,Diepenbeek,,,3590,,42fa34925cd85522
5.013445,51.1293848,12,Gasthuisheide,,Geel,,,2440,,67ba59d62d48ec5b
3.0112283,51.0911124,19,Arthur Coussensstraat,,Ichtegem,,,8480,,c39da9215bde370d
4.7612024,51.400247,167,Vrijheid,,Hoogstraten,,,2320,,3aaca2da3cdc9555
5.1792585,50.8009271,275,Naamsesteenweg,,Sint-Truiden,,,3800,,dbbc015e74146b04
4.3925476,50.8534125,494,Chaussée de Louvain,,Schaerbeek,,,1030,,68c3f3b4da01c0e8
5.1557763,51.2382943,73,Blokstraat,,Dessel,,,2480,,d12ccb53c7b6dfec
3.7481691,51.0527759,271,Dendermondsesteenweg,,Gent,,,9040,,cbeffa38d796b348
3.7368595,51.0357196,131A,E3-plein,,Gent,,,9050,,dbae1f1a5da7f9cc
4.3818304,51.1797295,34,Robert Broeckhovestraat,,Antwerpen,,,2610,,3dc3f59d359f3348
4.5093175,51.3059805,27,Pauwelslei,,Brasschaat,,,2930,,66c45b462505598d
3.9568764,50.8790651,19,Burg. D'haeseleerstraat,,Haaltert,,,9450,,c1f42f3aa65d2564
3.2569671,51.1985325,25,Lindelaan,,Brugge,,,8310,,f71e336dc4486adf
4.3598331,51.1830547,1,Portugesestraat,,Antwerpen,,,2660,,8d2a4a1d41284472
3.4129845,51.1332253,29,Hoekestraat,,Knesselare,,,9910,,1c5dea9f80dccce7
4.7604495,51.3990924,199,Vrijheid,,Hoogstraten,,,2320,,aa61a7d6e04c0422
5.2702289,51.2162998,240,Balendijk,,Lommel,,,3920,,145be8220e22c2a8
3.1486012,51.0240633,64,Koolskampstraat,,Lichtervelde,,,8810,,20e881eac35a4396
2.8008707,51.1771515,100K,Westendelaan,,Middelkerke,,,8430,,eeaa1832f773de20
4.3673203,50.8307918,32,Elyzeese Veldenstraat,,Elsene,,,1050,,8255f21be4403825
3.3371164,50.8758815,22,Akkerwindelaan,,Waregem,,,8791,,9f85c5c3c1381235
4.3739682,50.8647282,302,Chaussée de Haecht,,Schaerbeek,,,1030,,a6f8db059696e654
2.5846291,51.0964843,36,Koninklijke Baan,,De Panne,,,8660,,654ac9e2660aacfe
4.3233346,51.2173373,3,Leo Metsstraat,,Zwijndrecht,,,2070,,4ba3acdbf8c7179e
3.2565748,50.8236298,25,Kongoweg,,Kortrijk,,,8500,,553558db1516ebd3
4.7545853,51.1409524,19,Bouwelse Steenweg,,Herenthout,,,2270,,63f595b0d4914b22
3.8822819,50.7735109,2,Denderstraat,,Geraardsbergen,,,9500,,5371e169e45590ff
3.9254122,50.9736871,80,Briel,,Lede,,,9340,,55ce4d7c10ccbd3d
4.5007925,51.3959914,9A,Brasschaatsteenweg,,Kalmthout,,,2920,,001456d321370374
3.5395992,50.9745823,48A,Herfstlaan,,Deinze,,,9800,,48637801c0892eaa
5.5302959,50.9812778,3,Kruiseikstraat,,Genk,,,3600,,69c5b40b37769bc8
4.3353026,50.8843117,13,Rue Pierre Verschelden,,Jette,,,1090,,f35d9f5841de579e
4.2607547,50.9939715,57,J. Van Doorslaerstraat,,Londerzeel,,,1840,,c48edc5e0142ae93
3.7551291,51.050592,53,Destelbergenstraat,,Gent,,,9040,,ef05db69bfb0a98e
4.0326938,50.9562477,49A,Gooikenstraat,,Aalst,,,9308,,13d74ce4e0c7eb88
4.3899017,51.2070295,27,Edward Pecherstraat,,Antwerpen,,,2000,,ace2dd96f4b23ee5
3.0021091,51.1885569,22,Vissersstraat,,Oudenburg,,,8460,,8db42276dd56c5d0
3.1234466,50.799811,111,Bruggestraat,,Menen,,,8930,,55d1d022a2eccedb
3.0808114,51.3007943,4,Langestraat,,De Haan,,,8420,,de18180bbe6697b5
4.1217135,50.8386778,10,Keyerberg,,Roosdaal,,,1760,,b41b70b2c1fdc936
3.5740556,51.0562441,14,Kerkstraat,,Nevele,,,9850,,8f64ada0cf3a72be
4.7009786,50.8825565,51,Vaartstraat,,Leuven,,,3000,,35ca010c6b7c13eb
4.3065688,50.8601421,716,Chaussée de Gand,,Molenbeek-Saint-Jean,,,1080,,138682a80822668f
3.7344201,51.0408343,155,Gustaaf Callierlaan,,Gent,,,9000,,b611cad1f6038e56
5.5595508,50.9405267,2,Kempenseweg,,Zutendaal,,,3690,,935df1b6d166fd8f
4.4271813,51.1840703,87,Strijdhoflaan,,Antwerpen,,,2600,,9036f3d5b49d027c
3.6180672,50.7455227,2,Paul-Henri Spaakstraat,,Ronse,,,9600,,7a610f9bb5efdec4
5.1941798,50.8094566,56,Festraetsstraat,,Sint-Truiden,,,3800,,31394373b40ab43a
3.0203066,50.8452078,91,Wervikstraat,,Zonnebeke,,,8980,,cf6a2061f6b0eafd
4.1623986,51.1624993,14,Seringenstraat,,Sint-Niklaas,,,9100,,b7e4e8566664fe4c
3.9650271,50.9285556,10,Evenbroekveld,,Erpe-Mere,,,9420,,3e85d80713696929
3.1886678,51.2038396,31,Gruitstraat,,Brugge,,,8200,,a66559a31ec7b311
4.5340955,50.7745734,74,Brusselsesteenweg,,Overijse,,,3090,,875b91fdb1461a1c
5.465575,50.7836084,26B,Elfde-Novemberwal,,Tongeren,,,3700,,c307c7786ddba4d2
4.4952617,50.8762855,199,Sint-Martinusweg,,Zaventem,,,1930,,783c37220f08c2ea
3.2931592,51.3521613,86,Dumortierlaan,,Knokke-Heist,,,8300,,d02359e52744a0ee
4.3461511,50.8197397,60A,Verbindingslaan,,Vorst,,,1190,,f2193a660098f15e
4.3930203,50.8744898,132,Lindestraat,,Schaarbeek,,,1030,,97c019d1b6c8f30a
4.4556664,51.180016,7,Graaf d'Urselstraat,,Mortsel,,,2640,,11ec33fb7cb41bd3
4.3886559,50.8580878,36,Henri Stacquetstraat,,Schaarbeek,,,1030,,06d8e5e12fa0901a
4.4193216,51.2197722,9,Van Arteveldestraat,,Antwerpen,,,2060,,c4f0985ede25cd2e
3.257628,50.9940994,16,Cassanderusstraat,,Pittem,,,8740,,7489eef61116854a
4.9801899,51.314117,61,Steenweg op Sevendonk,,Oud-Turnhout,,,2360,,8e0340790fc6c49f
5.1432369,50.8194281,7B,Hendrik Prijslaan,,Sint-Truiden,,,3803,,ae9062b7d5a1674e
4.4804321,50.9411676,24,Huinhovenstraat,,Vilvoorde,,,1800,,b5960e1dc3d26094
4.425907,51.4329688,42,Zonnedauwlaan,,Essen,,,2910,,f88d7e4aaad0248e
4.01544,50.7787523,161,Rijstraat,,Ninove,,,9400,,b42a590cbf5eb9db
3.2747631,50.8234464,132,Zwevegemsestraat,,Kortrijk,,,8500,,c65b2310bae77253
4.497093,51.2524493,89,Gelmelenstraat,,Schoten,,,2900,,e20b39a52edb9163
4.1358077,51.1611409,11,Beekstraat,,Sint-Niklaas,,,9100,,c99979e75fe604f2
3.5982264,50.7468328,39,Fabriekstraat,,Ronse,,,9600,,981c6b9425fbbdee
4.6964696,50.8615002,67,Hertogstraat,,Leuven,,,3001,,fd7467ed8bedfc3c
3.258502,51.3433699,12,Vossenhul,,Knokke-Heist,,,8301,,2b244a8d5f0c1d05
4.0613153,50.9548734,38,Heidestraat,,Aalst,,,9300,,53b8957734b4527d
4.589181,50.8789969,28,Hulstbergstraat,,Kortenberg,,,3078,,1eb1c361777e4970
4.3332147,51.1102987,46,Achturenplein,,Niel,,,2845,,bbf124b90789cf6c
3.4431302,50.9134642,62,Knokstraat,,Zulte,,,9870,,f72d3a13795541fe
3.2647575,50.7621606,119,Tombroekstraat,,Kortrijk,,,8510,,714e7c9b00b0babd
3.4432287,50.8931017,46,Albert Servaeslaan,,Waregem,,,8790,,6df37226f6b1bb9a
3.0091637,50.9769198,22,Tulpenweg,,Staden,,,8840,,0c7a28a44ec14bea
4.3360633,50.8142659,105,Maarschalk Joffrelaan,,Vorst,,,1190,,e9ae29402e1409d7
4.4718363,51.242579,1,Vic Meesstraat,,Schoten,,,2900,,6adb71a77f917db1
4.7313926,51.2009167,26,Kerkeveldstraat,,Grobbendonk,,,2280,,8c3e3caad65aea7e
4.4115317,51.2149958,52,Tabakvest,,Antwerpen,,,2000,,6f350f25ff5c4565
4.3515578,50.8249335,75,Spanjestraat,,Sint-Gillis,,,1060,,62c01d106ee845ea
4.4749536,51.2296733,23,André Hermanslaan,,Antwerpen,,,2100,,98b126bc2107e8fb
3.446714,50.7694494,21,Meersstraat,,Avelgem,,,8580,,a4c026d31c044328
4.4579293,51.2717766,79,Kapelsesteenweg,,Antwerpen,,,2180,,bc358cbb110dbb70
4.3281002,50.8913178,170,Avenue Jean-Baptiste Depaire,,Bruxelles,,,1020,,bca8ac27e2d172da
3.6346714,50.9576014,15,Biesten,,Nazareth,,,9810,,a01c185317890fff
5.5951962,50.8835823,110,Gellikerweg,,Lanaken,,,3620,,64918e8ef63f4e03
3.6070565,50.7358729,158,Stooktstraat,,Ronse,,,9600,,3f17a1d719809432
2.6781965,51.1348976,20,F. Timmermanslaan,,Koksijde,,,8670,,0b20b478a45cb5d6
5.4171335,50.9099104,34,Kapelstraat,,Diepenbeek,,,3590,,5eaa32aeabad97fb
4.7059804,51.2769519,39,Turfstraat,,Zoersel,,,2980,,023e5d39e3add321
4.3518622,51.0627486,100,Emiel Vanderveldestraat,,Willebroek,,,2830,,2c1bde38d76de848
3.2324491,51.2140549,4,Ropeerdstraat,,Brugge,,,8000,,8ed22886c59b6bc5
5.2919437,51.222261,37,Kraaistraat,,Lommel,,,3920,,1e57b3663834ed0d
4.1769379,50.9724975,47,Klaarstraat,,Opwijk,,,1745,,7d78b46248de731c
4.3644657,50.8989217,46,Avenue de la Bugrane,,Bruxelles,,,1020,,ef09482ee3e7b968
3.6805095,51.0727133,561,Brugsesteenweg,,Gent,,,9030,,cc29bd95b05837df
4.5171376,51.0882693,69,Katelijnsesteenweg,,Duffel,,,2570,,1c00f5e36041c81f
4.8505675,50.9951661,17,Godshertogestraat,,Aarschot,,,3200,,c379a725c54b4c9d
3.5999942,50.7403514,49,Molendam,,Ronse,,,9600,,0bf4a6a48c6ae2ae
3.1539041,51.1861121,43,Zeeweg,,Jabbeke,,,8490,,6fb97a49b017ca83
3.8588762,50.9191582,3,Kloosterstraat,,Sint-Lievens-Houtem,,,9520,,fd05e53663382b01
4.8507308,51.2468566,29,Dingdongen,,Lille,,,2275,,26c70cafd73d2e1c
4.3713996,50.8650351,1,Rue Renkin,,Schaerbeek,,,1030,,25f1561e1e2002c6
4.3862813,50.9394766,56,Poddegemstraat,,Grimbergen,,,1850,,253f8ef659f1e307
4.2148467,50.9288997,30,Beneden Vrijlegem,,Asse,,,1730,,89b17a946e06e10b
4.4581956,51.2474943,105,Oudebareellei,,Antwerpen,,,2170,,1900735e4b1787c5
4.3165246,50.8372113,7,Avenue Raymond Vander Bruggen,,Anderlecht,,,1070,,d02aea371339523a
4.5203513,51.0933811,62,Hoogstraat,,Duffel,,,2570,,3ac9926bc45cd3c2
5.1198636,51.0719997,5,Waterbroek,,Tessenderlo,,,3980,,125d36b294088318
4.4036715,50.8092309,33,Place Eugène Keym,,Watermael-Boitsfort,,,1170,,5caf79a9b976ab6b
4.3695739,51.1863908,61,Weerstandlaan_HO,,Antwerpen,,,2660,,bf226fe7eba9a28c
3.7242555,51.0398155,26,Kattenberg,,Gent,,,9000,,7d5c01aa766e002c
