LON,LAT,NUMBER,STREET,UNIT,CITY,DISTRICT,REGION,POSTCODE,ID,HASH
5.365441,43.7646348,2,le jardin des fleurs,,Lourmarin,,,84160,,0cb16b71c258fb54
2.0809726,42.4736203,1,place sant miquel,,Eyne,,,66800,,d6cf6389e39bd04e
3.8505427,43.6157541,300,rue buffon,,Montpellier,,,34070,,d63d5f3b4ea3d3be
1.8840913,50.9371692,498,route de saint-omer,,Calais,,,62100,,db174914484b62b3
2.2378245,46.1915228,14,rue sully,,Gouzon,,,23230,,c36e2428e7386a45
-0.6223836,44.9044159,5,rue des bosquets,,Blanquefort,,,33290,,c80cb798c5c25336
4.3241943,47.4358056,4,impasse de fumée,,Flée,,,21140,,a29c117f1133bf6c
1.6472024,46.6883446,3,résidence aimé mercier,,Velles,,,36330,,1f06a5cdf5ea4f9c
4.0784644,48.2939966,13,boulevard du quatorze juillet,,Troyes,,,10000,,6f02329d7a18d534
6.9200042,49.197917,8,square pierre hoffmann,,Stiring-Wendel,,,57350,,78f19866bebc0ae9
9.0056768,41.8927673,1,canavaggio,,Campo,,,20142,,40ec73e2a25c9f76
4.0941384,49.9833878,29,rue d'hirson,,Anor,,,59186,,9e4840d510225f9b
-1.1602946,47.2617621,5019,les blutteries,,Orée d'Anjou,,,49270,,5e66deebc005867c
7.53918,47.9285673,4,rue de nambsheim,,Balgau,,,68740,,74e22ecbf82cec92
-1.6067024,49.326904,8039,,,Saint-Sauveur-de-Pierrepont,,,50250,,5008ee0c0086e330
1.5727044,46.7341342,55,route de châteauroux,,Luant,,,36350,,1911e40b7885a4a4
3.2849229,48.9770159,8,rue des cordeliers,,Charly-sur-Marne,,,02310,,1b533926e441fc87
1.8975125,47.2679547,4,allée ambroise paré,,Châtres-sur-Cher,,,41320,,2c9b2607a63d0c19
4.2736472,48.3462003,24,rue du balcon du parc,,Rouilly-Sacey,,,10220,,241ae47f7fd39dd0
-0.5297316,47.4900567,12,rue d'auvergne,,Angers,,,49100,,9a7abb17f71bccee
-0.3008681,45.0226642,9,la vergne,,Périssac,,,33240,,225bae2e810cb578
1.6834008,43.390325,3,rue de l'épargne,,Gardouch,,,31290,,3e052fed52c92c9b
3.9545073,50.2844798,142,rue du pont de pierre,,Maubeuge,,,59600,,fec2f12b32d799d0
6.7085391,45.9063169,413,route de saint-gervais,,Passy,,,74190,,af0c1a21bf7059fc
5.7759826,45.2183696,20,avenue du bourcet,,Meylan,,,38240,,1ccf025d0de1617a
1.6701449,47.7516927,9102,,,Lailly-en-Val,,,45740,,bb0ea2d463a2ae8c
-0.23056,48.9209468,5016,la tuilerie,,Saint-Pierre-Canivet,,,14700,,27b59a24ca7f1614
-2.4169164,47.8171524,5192,le pissot,,Saint-Marcel,,,56140,,e1a1780e468ad4de
5.5598091,43.3855503,41,avenue des termes,,Peypin,,,13124,,b5e6900dee699167
3.709774,49.8565814,6,chemin de puisieux,,Colonfay,,,02120,,0e0e0c36aa2c029b
1.2584976,45.8212658,51,rue des basses palisses,,Limoges,,,87000,,5f5e1e12fb59fba5
-0.8954313,46.10625,7,rue des artisans,,Forges,,,17290,,db791a968a55d60d
2.8254046,43.2875383,6,rue des chasseurs,,Pouzols-Minervois,,,11120,,5e81fc685e2f26bf
5.6024415,49.4464287,51,rue maréchal foch,,Longuyon,,,54260,,d498defb066199c3
-1.1826941,46.8574201,28,avenue de bretagne,,Saint-Fulgent,,,85250,,50e200e7f0347de2
6.3049866,44.353703,56,,,Selonnet,,,04140,,727b459bd52003fc
-0.6074953,44.98817,32,rue du huit mai 1945,,Ludon-Médoc,,,33290,,36af9d2bf6f1ffa0
0.0805526,48.4155879,25,rue la campagne,,Saint-Germain-du-Corbéis,,,61000,,eacf8ca2ec66639d
4.6689423,43.8061835,9099,,,Tarascon,,,13150,,abd1733b530918f9
-1.7403613,47.1983065,12,rue de la loire,,Saint-Jean-de-Boiseau,,,44640,,aac3473907b97d1d
7.7055019,48.6653802,1,rue des châtaigniers,,Vendenheim,,,67550,,5f00e98e97b53289
-1.5290365,47.1520352,2,rue des sternes,,Les Sorinières,,,44840,,32072b121ecedcec
4.1822162,43.6611795,5,rue honoré de balzac,,Marsillargues,,,34590,,906451d06c881d41
-2.0779693,48.3150521,5,,,Guenroc,,,22350,,8b1fde66f6ae8983
1.4766712,46.3826779,28,lignât,,Azerables,,,23160,,3e90d3bac8ad3cf0
2.5965361,46.3467032,67,avenue de la république,,Montluçon,,,03100,,151e736bdb92caae
0.2028312,49.7084219,9015,rue adolphe boissaye,,Étretat,,,76790,,f64c725e8a7e18e7
2.3278485,50.8063643,286,west houck straete,,Buysscheure,,,59285,,e982d2a43cb3df54
2.1753579,50.3077114,8,lotissement du val de canche,,Aubrometz,,,62390,,674d36f931c79d58
-1.5808148,48.1546422,14,rue beaumanoir,,Thorigné-Fouillard,,,35235,,73d8c8620045bcf1
-0.1923801,45.2204846,5029,route de chevanceaux,,Saint-Martin-d'Ary,,,17270,,d56fa16b0ff5a36f
2.2360222,44.5298293,18,avenue edmond ginestet,,Aubin,,,12110,,da505d3423ac4f7f
2.377749,51.0230972,10,rue albert thomas,,Coudekerque-Branche,,,59210,,c904a755408ffb25
6.1637944,48.6719056,1,rue d'amance,,Nancy,,,54000,,15d23ffc287550fc
3.8271514,45.8181947,3,rue du petit bois,,Saint-Julien-la-Vêtre,,,42440,,4eeae476449e7e82
-0.0465069,46.3969562,20,chemin de la croix d'hervault,,Pamproux,,,79800,,e9c747550a0711f7
-0.7494753,43.3219727,8,lotissement darralde,,Navarrenx,,,64190,,bd8238b5618dab17
-0.743346,43.5830521,5051,avenue des pyrénées,,Amou,,,40330,,bf1f3ecfd766f627
5.204644,45.0884043,15,chemin du fournel,,Saint-Lattier,,,38840,,37ed7b64e6422f24
2.431771,47.4802149,7,rue des huguenots,,Aubigny-sur-Nère,,,18700,,49a67bd0cccc6765
2.5712349,45.7544526,5045,place du foirail,,Herment,,,63470,,ea4e4c8b9e8123f2
3.4093513,47.8609756,1,chemin d'auxerre,,Poilly-sur-Tholon,,,89110,,a0872c515e1564ca
1.9040193,46.6014599,1,place raymond plique,,Sarzay,,,36230,,8be69ad14283dfe2
2.7605531,49.3914326,2,allée des mottes,,Jaux,,,60880,,0a58d4f955ddbdc5
-1.5902916,47.2159418,5,rue bernard,,Nantes,,,44100,,f742af16532a5a46
1.9016426,50.1513596,4,rue du haut,,Millencourt-en-Ponthieu,,,80135,,4fc276b5603f5c13
1.0483358,43.7292361,52,avenue raymond sommer,,Cadours,,,31480,,eb53fb628c5bba7a
3.110926,45.8063527,1,rue pierre servoir,,Clermont-Ferrand,,,63100,,70e9aff73979b373
1.5389144,43.9300682,70,rue du presbytère,,Verlhac-Tescou,,,82230,,8d609f2c55b663fa
4.0611434,48.2934567,5,rue benoît mâlon,,Sainte-Savine,,,10300,,a919628c8cd7c00b
-0.1726033,43.5522102,442,chemin du docteur brus,,Conchez-de-Béarn,,,64330,,d4e2c62126fadd62
-0.668675,43.7391177,163,allée de tauziede,,Montaut,,,40500,,ed881dcd3d7b46a5
5.5913209,43.3899454,3,impasse de la carreirade,,Peypin,,,13124,,f68220a93d07ff87
-1.5464669,49.0484949,221,rue du carré,,Tourville-sur-Sienne,,,50200,,0e4cd8eb436e3dc1
3.0274292,42.6920947,2,impasse des narcisses,,Canet-en-Roussillon,,,66140,,469a4e623b6e1835
0.3098072,45.2852746,1079,,,Allemans,,,24600,,127fd88e525106ee
55.4732847,-21.3133254,39,chemin raphaÃ«l,,Saint-Pierre,,,97410,,b783d452f18afae3
-0.2364945,46.3338172,14,le carrefour,,Aigonnay,,,79370,,581f8c945e2644a6
0.7892616,42.9860991,40,village,,Sengouagnet,,,31160,,5d6e7a286e1b10ab
-1.1361819,44.7780716,8,impasse du grand banc,,Arès,,,33740,,87f50c71daed829a
4.8336403,45.0660469,17,rue du 14 juillet,,Tournon-sur-Rhône,,,07300,,14bead472928097d
3.3297268,44.5666083,3,rue du four,,Montrodat,,,48100,,803298e323b13677
2.6388666,48.9335217,128,chemin de chelles,,Claye-Souilly,,,77410,,7e830da31ea898f4
1.7000752,47.8975417,4,rue des champs fleuris,,Huisseau-sur-Mauves,,,45130,,d532313bbbc4eb1d
2.8058878,46.3355249,42,rue victor hugo,,Doyet,,,03170,,37acd4bcd8e7b1c9
2.4730951,47.0868389,4435,route de bourges,,Osmoy,,,18390,,e5570a6acc3bd8e5
0.7447813,43.0021366,5,hountarilles,,Arbon,,,31160,,362e3fcb3e77bc17
5.5831831,45.3435317,127,chemin du janin,,Saint-Jean-de-Moirans,,,38430,,0f3b6ca002bfa35b
2.0950729,43.7296844,5534,la bruyerette,,Lautrec,,,81440,,34183d38a101c50f
3.0012934,50.612432,98,rue georges potie,,Loos,,,59120,,6692e20430389293
3.4530166,45.472464,7,route de sainte-catherine,,Vernet-la-Varenne,,,63580,,753ddb20ea3ee661
5.1154292,43.3400837,21,rue richard wagner,,Sausset-les-Pins,,,13960,,d9b820e6165c3379
3.3600331,49.6631563,9013,avenue dupuis,,La Fère,,,02800,,d28b4174b318f843
2.2464093,43.5084932,9103,les bousquets,,Labruguière,,,81290,,33a752ab13f5f13e
4.2174701,43.6852637,755,chemin des sarcelles,,Aimargues,,,30470,,1eaffbd735e2a102
2.6766111,45.6885564,5094,farges,,Briffons,,,63820,,b237c59cb15833b9
0.0302753,48.9169545,5032,grandmesnil,,Saint-Pierre-en-Auge,,,14170,,9b063d864357b030
0.2702141,46.6107478,2,rue des lys,,Vouneuil-sous-Biard,,,86580,,160fc75409740240
-2.7515713,48.4982295,2,rue auguste blanqui,,Saint-Brieuc,,,22000,,73441a50d7bbee18
1.51665,46.3240487,19,,,Bazelat,,,23160,,c472d2b526ea601f
4.8759743,47.095546,15,rue du creux lachet,,Magny-lès-Villers,,,21700,,f2f5c2e4aae2972e
-0.9274613,45.668948,6,impasse des pierrières,,Saujon,,,17600,,1eb9c277a31d93f2
4.6268756,43.6757844,17,rue des carmes,,Arles,,,13200,,b21c73e9b38787b9
6.5897334,46.111689,5393,montée de la diamanterie,,Taninges,,,74440,,6e5390dfdd515e60
5.2072167,46.1906604,234,rue chaudouet,,Péronnas,,,01960,,aaca87f6055b5437
2.3403583,49.0377841,131,avenue jean rostand,,Domont,,,95330,,0aec158d79fb7664
2.7002492,50.5051497,45,résidence du château des prés,,Sailly-Labourse,,,62113,,91b6d5c6e75bcd2c
4.3108131,46.30787,5080,curbigny,,Curbigny,,,71800,,32ee76f9668d2736
1.7745298,45.4279636,5088,,,Beaumont,,,19390,,d139552c77250546
-0.302399,48.993854,2,rue des basses chauffeterres,,Saint-Germain-le-Vasson,,,14190,,eb17e065aa0c6f85
1.3371626,43.6141826,5,chemin de millassis,,Colomiers,,,31770,,0defbb48402336ea
1.3623757,49.1851831,1,résidence du catillon,,Courcelles-sur-Seine,,,27940,,f7578d01137350ee
6.004835,43.5602007,5081,impasse du stade,,Barjols,,,83670,,3f9a8070d68a0ff8
2.0136458,49.254104,157,rue de chaumont,,Senots,,,60240,,289878ab5aa62575
-2.2390829,48.5220059,1,rue chateaubriand,,Plancoët,,,22130,,ddee66efad7a54f0
0.9152357,48.8398704,58,rue pasteur,,Breteuil,,,27160,,005b1e90dd1edf36
-2.0550651,48.6281081,23,avenue du général giraud,,Dinard,,,35800,,dc775c113eb3d8c3
2.4841764,48.6112993,12,rue albert mercier,,Corbeil-Essonnes,,,91100,,cb611ba14442ceb4
4.979713,43.8980134,1,allée des cerisiers,,Caumont-sur-Durance,,,84510,,d2ad0882cebc8faf
-1.1422651,46.165758,71,avenue des cordeliers,,La Rochelle,,,17000,,90935c522ce34c3d
2.3169142,48.7870842,24,rue ferdinand jamin,,Bourg-la-Reine,,,92340,,6300474f8713fd87
3.7109308,43.5007447,9,rue du milieu,,Gigean,,,34770,,1fadc6f0adaed629
-0.99437,44.6465296,12,chemin de lartigue,,Biganos,,,33380,,80f764c4ac45fc44
-3.2667666,47.7109451,32,kerplevert,,Merlevenez,,,56700,,a7bd15c83c69d639
6.3702825,43.4892795,451,chemin de vaussière,,Lorgues,,,83510,,001f7bedb99745a8
7.3205333,47.8007732,69,rue des mines,,Wittenheim,,,68270,,8564649e8220030c
6.0489536,49.2610562,3,rue louise michel,,Moyeuvre-Grande,,,57250,,1089d27d30798e0a
1.5547624,47.2624923,13,rue du 31 août 1944,,Selles-sur-Cher,,,41130,,3fc4fec73e6f098a
2.2173838,49.5678726,16,rue de crevecoeur,,Froissy,,,60480,,c9c3a070adb99e88
1.2489618,48.4522056,8,rue albert camus,,Courville-sur-Eure,,,28190,,e17f8f4dce4fecbb
-3.4490437,48.6002827,20,hent kompagnon dall,,Le Vieux-Marché,,,22420,,b7d06540c8850dcf
0.5973075,45.51875,5000,,,Lussas-et-Nontronneau,,,24300,,f91efad726d200ca
2.5007152,48.6997776,14,rue du réveillon,,Brunoy,,,91800,,05b7926e9ff31772
2.31697,48.7932248,137,rue des blains,,Bagneux,,,92220,,97584ccc165a753e
-1.2032853,48.1562003,412,,,Balazé,,,35500,,b0b64b7591378191
-0.1964995,44.7224867,8,rue yvonne de la seiglière,,Baigneaux,,,33760,,622397e59b699705
4.9527022,43.826011,9,rue des filioles,,Saint-Andiol,,,13670,,917689897b55a66f
2.4889445,49.2582272,107,avenue léonard de vinci,,Creil,,,60100,,1972f3d73ac34884
-2.4677467,48.6268399,35,rue castelnau,,Erquy,,,22430,,599cc13f155de18d
5.6566404,46.2560394,6,rue du muret,,Oyonnax,,,01100,,bef4883db949db06
2.2918084,48.7499716,5,rue des hautes bièvres,,Antony,,,92160,,449e619d7a577ad8
1.4760138,47.3444036,4,rue de couddes,,Chémery,,,41700,,804c57536a10ac53
-0.8119035,46.7325519,5879,la citardière,,Montournais,,,85700,,e309db3cbdb51cfd
7.1788574,43.6743191,1284,chemin des plateaux fleuris,,Saint-Laurent-du-Var,,,06700,,c961099e67ca46f4
2.1286068,43.5277936,2,impasse du ségares/le ségares,,Lescout,,,81110,,c32f48edc0e487e1
0.4420091,46.8861584,5346,,,Saint-Gervais-les-Trois-Clochers,,,86230,,db6c6b86e9efc28a
0.8315807,44.1322919,5063,,,Lamagistère,,,82360,,39624bf769285647
2.3312384,49.3289783,115,rue rené fevre,,Angy,,,60250,,94a1f63dc1a71390
1.5513651,48.5159865,16,avenue des parigaudes,,Jouy,,,28300,,5bab53bcd0f02403
-4.4186625,47.967394,5141,gorrequer,,Plozévet,,,29710,,12cd5e45f209ea03
-0.2310346,44.6728053,103,laubarit,,Saint-Pierre-de-Bat,,,33760,,d43a922616fec090
3.6606446,43.4131705,25,rue de la madrague,,Sète,,,34200,,b2420b83039064a2
1.5058837,43.6077807,25,le clos du bois,,Balma,,,31130,,cf54db59c23be0cb
-1.1076672,47.479671,91,rue de la noue,,Maumusson,,,44540,,d6bae41b69533d3e
5.4164381,43.2791033,12,boulevard rouvier,,Marseille 10e Arrondissement,,,13010,,9fb63f369a364fbb
1.474018,43.5517436,4,allée des coquelicots,,Ramonville-Saint-Agne,,,31520,,d562ac2052a715b8
-0.0983432,47.259553,7,impasse de la lyre,,Saumur,,,49400,,b1118663201661e7
2.5752011,48.8717039,8,rue agent schoenfeld,,Chelles,,,77500,,f82e8c0d3585ffac
-0.5256306,49.1091061,30,rue de la douiterie,,Bougy,,,14210,,6001f5434c059e39
1.462391,48.1853186,24,rue des écoles,,Pré-Saint-Évroult,,,28800,,50a377de4c42ae12
2.532955,49.5936737,4,chemin de la vallée,,Dompierre,,,60420,,40b0c0c841436bd6
-3.0034345,47.7753447,2,hent trez,,Pluvigner,,,56330,,779206f9a0cb0d2d
-0.1868674,45.0467933,7,rue de nicole,,Guîtres,,,33230,,8269af7ce58dc882
7.0213109,43.5524677,56,rue d'antibes,,Cannes,,,06400,,dc46d2cc1c9a9cdc
-61.6541997,16.2446619,40,lotissement la roziÃ¨re,,Lamentin,,,97129,,69e147a3001e14e8
0.731816,49.5247976,26,avenue du latham 47,,Rives-en-Seine,,,76490,,68764e216b42cc9c
0.1488957,43.064713,22,rue victor hugo,,Bagnères-de-Bigorre,,,65200,,c00bd4af571793c7
1.6103487,50.7768005,8,rue jean bart,,Wimereux,,,62930,,ee89f6b46fe58fe4
3.1759142,50.7034613,54,rue labruyère,,Roubaix,,,59100,,d3224cdf0c62eb45
7.1639041,43.658219,18,avenue général leclerc,,Cagnes-sur-Mer,,,06800,,8449e22745e79cb8
-0.2717207,44.5559718,30,allée du petit parc,,Toulenne,,,33210,,2d7ecda1f783b2f9
5.605459,46.2189838,305,rue des montaines,,Groissiat,,,01100,,d94578b751ae711c
-0.3242949,49.2014263,122,rue des enfants,,Hérouville-Saint-Clair,,,14200,,74ca1dc6fd1e615c
1.3459843,47.2854789,113,route de saint-aignan,,Mareuil-sur-Cher,,,41110,,c73a35d6528b77de
1.9786139,42.4163789,24,rue des jardins,,Osséja,,,66340,,32f3c75ffd817367
-1.5673317,46.4167529,26,rue des vanneaux,,Jard-sur-Mer,,,85520,,df4291153138d4d0
55.6138914,-20.918419,8,chemin eucalyptus,,Sainte-Suzanne,,,97441,,f1e527ff3b4b7647
-3.3802209,47.7244443,18,rue des bruyères,,Larmor-Plage,,,56260,,847a38c5ec0f9a27
-2.9843378,48.2041958,27,rue des ardoisiers (mur-de-bretagne),,Guerlédan,,,22530,,9ebf795915da8dfb
4.9549754,44.007239,308,rue des cyprès,,Althen-des-Paluds,,,84210,,793621e41148050d
2.3777435,48.6843932,23,rue jean jaurès,,Viry-Châtillon,,,91170,,407e0f1bba0d615d
6.3461377,48.616622,11,boulevard des pyrénées,,Dombasle-sur-Meurthe,,,54110,,45c3bf4d86b8b003
7.0736485,47.8444628,3,rue du vieil armand,,Willer-sur-Thur,,,68760,,13840383f608e49f
1.0966152,49.8847425,84,rue du frêne,,Rouxmesnil-Bouteilles,,,76370,,b04b2c2ae1674176
5.3989643,43.313314,32,boulevard velten,,Marseille 4e Arrondissement,,,13004,,8e9a55d0fa604896
6.6330636,46.3591488,337,route du pardon,,Saint-Paul-en-Chablais,,,74500,,594d5b0485e2db6a
-3.5480253,47.8706015,10,rue brouzic,,Quimperlé,,,29300,,76ca7d6984ccde4e
5.2202641,46.6031523,1790,route de patran,,Bruailles,,,71500,,5425e4365cf2cbdd
0.2306032,46.4635396,3,route de vivonne,,Marçay,,,86370,,aea9be45466d9912
-0.849229,47.2871682,5264,rue nationale (sainte-christine),,Chemillé-en-Anjou,,,49120,,3f8cb62719d2a14a
4.3835501,45.774909,5311,,,Chambost-Longessaigne,,,69770,,969dc607af548afb
6.3754104,46.2672793,59,chemin de la boutassière,,Bons-en-Chablais,,,74890,,6dd74e9c64d414fa
3.8404171,50.1994249,8,rue de l'hôtel de ville,,Aulnoye-Aymeries,,,59620,,2c30468153bcb9c5
4.0428644,49.2285016,207,rue ledru rollin,,Reims,,,51100,,ec07793f190ab2e6
0.9931193,44.8539683,5,,,Coux et Bigaroque-Mouzens,,,24220,,49e882f337c3b70d
1.0359121,49.8706807,60,rue jacques lanty,,Offranville,,,76550,,bd45a48b88709b09
1.3838431,47.3558832,1565,route de thésée,,Couddes,,,41700,,d41e504a16a5875f
2.3161247,49.904476,79,rue milton,,Amiens,,,80000,,924e8dc1ded242d0
6.2313949,44.104241,25,avenue gaston boyer,,Digne-les-Bains,,,04000,,6c46a0b73e7b7bdb
3.312723,50.4477361,1150,rue de bouteau,,Beuvry-la-Forêt,,,59310,,40fda8f140053379
4.0447803,50.3304889,19,rue de maubeuge,,Vieux-Reng,,,59600,,82bc07f12c588fce
0.3348364,47.9098535,22,rue des bleuets,,Brette-les-Pins,,,72250,,623682f64e36575b
3.1234611,50.7808442,38,rue jean fievet,,Halluin,,,59250,,063b9b356abe2420
-1.2099409,49.4326813,26,la dune,,Saint-Martin-de-Varreville,,,50480,,3592ce0fbb888232
4.2603685,45.6070441,5679,lotissement les coteaux du bourg,,Cuzieu,,,42330,,00830bf966639ab2
-3.289856,48.0443834,5013,guern ihuel,,Lignol,,,56160,,03ca05dff0f3ed9c
-3.5758549,48.7740053,16,rue de bonne nouvelle,,Trébeurden,,,22560,,238851c8bd4bb418
5.7876137,46.3894317,22,rue de fourger,,Lavans-lès-Saint-Claude,,,39170,,bab977a46c933631
7.3675112,48.1027618,,RUE LAVOISIER,,COLMAR,,,,,d6cc952e83e05580
2.3120788,48.8731349,61,rue la boétie,,Paris 8e Arrondissement,,,75008,,e7e86fdc8fdb6327
3.8009937,43.6970888,34,allée des bergeronettes,,Saint-Gély-du-Fesc,,,34980,,8e98b922aa23c2a6
2.2537236,48.5832557,12,chemin des berges,,La Norville,,,91290,,4b0f3f3818e5c153
0.0289216,46.5450982,7,puybergault,,Benassay,,,86470,,eb36572513190f2f
-2.7444166,48.5074652,23,rue jean mermoz,,Saint-Brieuc,,,22000,,cc561ab9044e2d17
7.2968372,43.7160245,66,avenue milon de veraillon,,Nice,,,06300,,0aa664a6978cae89
2.6173166,43.8589863,5161,le mazieu,,Pousthomy,,,12380,,8ba19634d23ecf5d
3.3892595,48.0576745,7,rue de la jamauderie,,Dixmont,,,89500,,1b4aed6e8b495973
3.4568742,44.9212651,5055,le menial,,Grèzes,,,43170,,6e3288b9a6888c88
4.5314658,45.848224,170,route de la gare,,Saint-Romain-de-Popey,,,69490,,36237993827234f8
2.7032578,42.7717351,867,lous padreguets,,Estagel,,,66310,,b1ffd32520029916
-1.3251053,47.00424,4,le palnais,,Saint-Hilaire-de-Loulay,,,85600,,7f11820c9ccba2df
2.2107439,49.493348,18,rue de l'horloge,,Lafraye,,,60510,,619e71d43d53cbb3
-0.171232,45.6793992,26,rue maurice laporte bisquit,,Jarnac,,,16200,,4a1bdfac626d4d93
6.4408344,47.6440022,2,impasse du tilleul,,Vy-lès-Lure,,,70200,,d22779422d2ce61b
3.2487348,50.6793112,3,rue michelet,,Leers,,,59115,,b2ebae742aade55d
1.8811298,47.8629918,453,rue de navrin,,Olivet,,,45160,,35ba5cee6445fe54
-0.1435742,47.3608525,9007,,,Longué-Jumelles,,,49160,,1c45db2490f14806
3.8572848,44.2463893,5008,lavit,,Saint-Hilaire-de-Lavit,,,48160,,b61de6a2af4fef5d
2.9057942,42.6675693,273,avenue albert einstein,,Perpignan,,,66100,,8dbf49c775f444f3
-1.408478,48.1028873,5,rue des sternes,,Châteaubourg,,,35220,,a663573825035a10
-4.5199942,48.4039573,7,rue de kerguerec,,Brest,,,29200,,08f60b7c5d0b4464
6.1277561,48.7914801,30,rue de metz,,Custines,,,54670,,305219b5247dbe64
4.9101474,45.7291328,25,avenue des sports,,Bron,,,69500,,c6628496b94282bb
2.5716806,48.8719189,39,avenue martyrs de chelles,,Chelles,,,77500,,31daeb22b057fdd4
1.3713117,47.7973966,12,rue de la vacherie,,Saint-Léonard-en-Beauce,,,41370,,c6a9932819a7e23b
2.5374114,50.7728055,14,route d'hondeghem,,Saint-Sylvestre-Cappel,,,59114,,4cb70413a18cb89a
-61.3396722,16.2488896,5013,,,Sainte-Anne,,,97180,,82bb6f1487dfed1e
2.5622037,50.519154,40,rue de l'égalité,,Labeuvrière,,,62122,,6bac4433628a93d5
-0.3755373,48.4350104,5222,la hardrière,,Chevaigné-du-Maine,,,53250,,1c5864fc55d4ccf5
3.5166024,47.9628827,23,avenue des tilleuls,,Migennes,,,89400,,d36a8c20688db6bb
-0.4898603,49.1445333,1026,route de bretagne,,Mouen,,,14790,,91698520a1a9c007
7.2598248,48.0893438,,DOLCHEN,,TURCKHEIM,,,,,d827e4b465a5069a
2.1920283,48.8513891,56,rue du 19 janvier,,Garches,,,92380,,47fb52dad5705cb3
1.1230713,49.4345721,30,rue du progrès,,Rouen,,,76000,,dff1efe200b6fbbe
-0.3403423,46.7883995,3,,,Chiché,,,79350,,0eef0fc10ec8ddd9
2.1515494,43.9127112,7,chemin des coquelicots,,Albi,,,81000,,3298e1d7ef4f3da0
-1.0145755,46.6730858,108,rue des gabardières,,Chantonnay,,,85110,,a4508c39a3d2b314
-0.3527672,43.3047563,21,avenue des lilas,,Pau,,,64000,,9e8bad3025217ec6
2.4290645,44.2769284,95,rue de l'arbre de lagarde,,Baraqueville,,,12160,,27ca5ba5ab19dd63
4.1654558,46.9546078,5416,,,La Grande-Verrière,,,71990,,5885b7908871fe3d
