LON,LAT,NUMBER,STREET,UNIT,CITY,DISTRICT,REGION,POSTCODE,ID,HASH
6.1255661,49.9840297,22B,Am Duerf,,Wahlhausen,,,9841,214168,f7253d9b29a654c6
6.0354076,49.4763698,7,Rue Pierre Schiltz,,Tétange,,,3786,72751,753e204e0ff38f4a
6.1045994,49.7470223,8,Rue Jean Majerus,,Mersch,,,7555,125196,01c3dfae4b55d587
6.1335629,49.63118,75A,Rue d'Eich,,Luxembourg,,,1461,8904,c76e5a9ab4351348
5.9392751,49.5248724,48,Rue Prince Jean,,Soleuvre,,,4463,93370,c1ce9e8008e29585
5.8576503,49.7892106,19,Rue Principale,,Nagem,,,8544,143811,556d3eb39c5c7810
6.3872935,49.6028331,23,Neie Wee,,Ehnen,,,5419,166447,32783c1d29ae7a88
6.1588696,49.6223973,36A,Rue des Muguets,,Luxembourg,,,2167,16529,ec5e3d88d5c4b1f5
6.1074548,49.5935652,124,Rue de Cessange,,Luxembourg,,,1321,10282,74dbb8d2f73d07d2
5.8295051,49.5478519,222,Route de Longwy,,Rodange,,,4831,80829,aabfc01627da8499
5.849847,49.5500953,118,Avenue de la Gare,,Lamadelaine,,,4873,76548,b5949b84f254ebf2
5.9488854,49.6202365,15,Rue de la Forêt,,Garnich,,,8354,32064,8571f59f3d47425e
6.0476246,49.4930477,138,Rue de Noertzange,,Kayl,,,3670,70878,58ec5d64f5a95b42
5.9775379,49.488167,7,Rue Barbourg,,Esch-sur-Alzette,,,4022,62970,273566117af67191
6.149893,49.5984693,203,Rue d'Itzig,,Luxembourg,,,1815,9053,9b57d7a9af8979df
6.3709922,49.5623118,29,Hamesfeld,,Stadtbredimus,,,5450,173448,400f4279496ef1a8
6.1399784,49.5940258,43,Rue Auguste Letellier,,Luxembourg,,,1932,7435,2f38b390e2f8c2d0
5.8407376,49.543835,38,Rue Joseph Philippart,,Rodange,,,4845,82013,5d289847548b11c2
6.113107,49.5076605,77,Montée Krakelshaff,,Bettembourg,,,3235,217198,7f7a10e33595a9a1
6.0452433,49.5176487,77,Rue de Noertzange,,Bergem,,,3315,74266,0148c578046880dd
6.2191811,49.9337139,9,Rue Braetschette,,Vianden,,,9406,152204,d1ddebee0dfd5f34
5.9358381,49.5513826,30,Cité Schmiedenacht,,Sanem,,,4993,89572,fac53d71801fa602
6.1008829,49.6082489,28,Rue Général Major Lunsford E. Oliver,,Luxembourg,,,2225,19746,f65cb0288e9816a4
6.2337668,49.6237747,70,Rue Principale,,Neuhaeusgen,,,5290,109061,3c5ff82c2abe6d9a
6.1327709,49.5253873,3,Rue Alex Federspil,,Peppange,,,3391,84583,6c7b160f2cee6ee3
6.003518,49.5044897,21,Rue Mathias Koener,,Schifflange,,,3853,95982,e1bf231c0b340b75
6.0131167,49.9820487,7,Ënnescht Duerf,,Lellingen,,,9760,186496,5cf8f4f063d62b3e
6.0693574,49.7911319,42,Route de Colmar,,Bissen,,,7766,118049,52c9b99f63afc013
5.9792808,49.5046048,20,Rue Frédéric Joliot-Curie,,Esch-sur-Alzette,,,4154,66620,5feaf348f4995446
6.0538622,49.6172444,211,Rue des Romains,,Bertrange,,,8041,97938,20ec2499b3ac98d4
5.9209425,49.9671499,40,Rue Neuve,,Wiltz,,,9542,151038,00d33885fbb5606d
6.0175001,49.5098366,118,Cité Paerchen,,Schifflange,,,3870,94173,3a31b7c07ca3cc19
5.9305688,49.958653,58,Route de Bastogne,,Wiltz,,,9512,149482,f684866fd0d53915
6.0937254,49.6029099,162,Rue de Merl,,Luxembourg,,,2146,12700,0016735de5373e08
6.4850128,49.7025896,3,Am Kundel,,Mertert,,,6669,231549,2949ae9dc4510e4a
6.2329282,49.6565517,99,Rue Andethana,,Hostert,,,6970,104780,cf7ce5a1677d08e3
6.3470281,49.4873574,23,Mounereferstrooss,,Remerschen,,,5441,171872,5679acbc5dfb4cf6
6.0138986,49.5090188,34,Rue du Stade,,Schifflange,,,3877,95906,a377408279683e8f
6.2302627,49.653177,8,Spackeltergaass,,Senningerberg,,,1670,107454,52e5e3283b103c3b
5.9761957,49.4974802,23,Rue Léon Weirich,,Esch-sur-Alzette,,,4348,67341,22ad15d085f6be25
6.1519536,49.8683443,3,Rue du Kockelberg,,Diekirch,,,9252,132473,00b8cbb1a29def3d
6.3998564,49.6109824,22,Hiel,,Wormeldange-Haut,,,5485,167505,6c7a44f7c5331d03
5.9712196,50.0984539,40,Maison,,Asselborn,,,9940,196486,74b6e191420f5c2e
6.1219578,49.6698962,8,Rue J-F Kennedy,,Steinsel,,,7327,111857,da08e0548bcc3884
6.2215012,49.7863986,3,Huelewee,,Larochette,,,7619,220220,349eba65d62fd097
6.0360722,49.6676807,8,Rue des Romains,,Kehlen,,,8284,181909,eeff49ba3096b176
5.8484281,49.9229109,8,Schoulbeerg,,Bavigne,,,9635,231230,a665b2ef238fa2ba
6.420961,49.8138889,9,Parvis De La Basilique,,Echternach,,,6486,190896,6bd7167d0c351d9f
6.3695486,49.7063709,5,Om Béchel,,Biwer,,,6833,159925,1857aaebb8806d2d
6.220165,49.9317831,7,Rue de Huy,,Vianden,,,9415,152213,163ddead1004a0ba
6.1083189,49.6188289,51,Knäppchen,,Luxembourg,,,1863,3755,2f1bafe5f629f677
6.2209033,49.5622614,7,Rue Maeshiel,,Syren,,,5899,117117,56d6e74954fc5009
6.0564039,49.6128995,15,Rue du Charron,,Bertrange,,,8067,98132,1db96e0013366565
6.128029,49.6135754,28,Avenue de la Porte-Neuve,,Luxembourg,,,2227,555,56166ec8e680f5f6
6.1335975,49.6098238,12,Rue du St Esprit,,Luxembourg,,,1475,215701,34e82894f81dee13
6.1240766,49.5901623,23,Rue Johannes Gutenberg,,Luxembourg,,,1649,21716,33242ce4296d8adc
6.0143158,49.5041649,12A,Rue Pierre Dupong,,Schifflange,,,3832,215294,3b7495998fa6fea9
6.2984816,49.8344284,2,Rue Belle-Vue,,Beaufort,,,6315,153127,8d92dbd869a21af9
6.4954595,49.7101929,43,Esplanade de la Moselle,,Wasserbillig,,,6637,205500,f4b5e88b14fd1fc4
6.3925313,49.8064209,3,Melick,,Echternach,,,6472,155530,24e131f5f713b6b3
5.8459425,49.54304,29,Rue des Romains,,Rodange,,,4849,81441,039372d52145f79d
6.1317043,49.5257943,51,Rue de Crauthem,,Peppange,,,3390,84651,188ef8d4fb42ba8e
6.2841364,49.7942714,8,Rue de la Montagne,,Waldbillig,,,7681,158747,9fcf8de9ac55a1c7
6.4356981,49.7851689,3,Neigaarden,,Osweiler,,,6572,157731,9689b46265b48f35
6.0422647,49.4779147,91,Rue Principale,,Tétange,,,3770,72851,487cb7e628208aa1
5.9771196,49.4961924,40,Rue des Charbons,,Esch-sur-Alzette,,,4053,64810,89d00774f7554e82
6.0344285,49.4790159,53,Rue de l'Industrie,,Tétange,,,3774,72175,42b409da47e65c45
6.3959726,49.7311,7,Neie Wee,,Berbourg,,,6830,164618,b4f812670838252b
5.8872076,49.5345418,33,Rue du Kirchberg,,Niederkorn,,,4612,49566,6725b1fe92b83e9b
6.1393324,49.570846,45,Op der Hobuch,,Fentange,,,5832,100846,9cc76fafd824bd5a
6.1419456,49.7207185,148,Route de Fischbach,,Lintgen,,,7447,121503,16659fd9f8dde740
6.3621906,49.5459955,49,Rue de la Gare,,Remich,,,5540,172649,af1e355ad8a4c086
6.2463092,49.7041585,11,Rue Tun Deutsch,,Junglinster,,,6111,178866,a0a52207f96f8977
6.1497578,49.5715237,16,Rue de Gasperich,,Hesperange,,,5826,102140,53a06d979e6b5d6f
6.1663402,49.8686399,48,Rue Clairefontaine,,Diekirch,,,9220,131887,44f2e5698a524d8f
5.9531162,49.5097868,16,Rue d'Offenbach,,Esch-sur-Alzette,,,4270,63311,55ae229568ed7013
5.873262,49.8141754,39,Rue Principale,,Folschette,,,8834,141985,b5d7b3d0596fbcd1
6.2551248,49.6167682,23,Beim Fuussebur,,Schrassig,,,5364,109100,51a22788946fcc31
6.0991402,49.8261051,20,Enner den Thermen,,Schieren,,,9137,226093,6d9d04d5c72d10f1
6.0353742,49.6653107,33,Rue de Mamer,,Kehlen,,,8280,33745,a4d8f188a4e7df6b
6.3935278,49.7359922,9A,Keiwee,,Berbourg,,,6831,209420,ed2eb82ed3bdcdef
6.0629228,49.7891521,4A,Route de Boevange,,Bissen,,,7762,118012,bb7d75dabb2c8be1
5.9269582,49.5072858,30,Rue de l'Usine,,Belvaux,,,4490,87794,8eebec6c4c781311
5.9793118,49.7658769,27,Route d'Arlon,,Useldange,,,8706,145001,81db3ebe061f82cb
6.4125571,49.8097911,10,Rue C-M Spoo,,Echternach,,,6483,156053,11ae270227a70a49
6.1427487,49.5824613,14,Rue Henri Entringer,,Howald,,,1467,103639,083101db61b4b7ff
6.0353056,49.8571863,64,Rue Belle-Vue,,Niederfeulen,,,9176,226914,6597ce2fd9dcefc5
5.9080857,49.5715688,11A,Rue de Bascharage,,Hautcharage,,,4910,221806,358f48b46900c98c
5.8907813,49.5262929,4,Rue Kelvert,,Niederkorn,,,4598,50508,08483648fb33f25d
6.0036965,49.506806,96,Cité Emile Mayrisch,,Schifflange,,,3855,93835,54f00c1c5414aeb6
5.9756166,49.4975658,28,Rue Léon Weirich,,Esch-sur-Alzette,,,4348,67392,cd500702a6fa69d0
5.9322089,49.5236673,64,Rue de Differdange,,Soleuvre,,,4437,91579,804233b42fe6e72f
6.0929151,49.4855024,132,Rue du Parc,,Dudelange,,,3542,57650,f9eddd4d088cbdf7
6.1603016,49.6236189,103,Rue des Muguets,,Luxembourg,,,2167,16417,038dda5af9214626
6.12209,49.6527227,15,Rue Michel Rodange,,Bereldange,,,7248,115155,0546d1cfc881ed94
5.7910763,49.8519012,29,Rue Principale,,Bigonville,,,8814,141792,82a629a8aacc0fcf
5.8275233,49.5476347,17,Rue Eugene Huberty,,Rodange,,,4822,81838,aff891d1ccf6aae9
6.0195959,49.5077507,19,Rue de Noertzange,,Schifflange,,,3860,95202,d13a7a165e1a60e0
5.886005,49.5210795,27,Rue de la Montagne,,Differdange,,,4630,48238,238b2fe1973368f8
6.0168161,49.5451328,40,Rue des Trois Cantons,,Ehlange,,,3961,82473,5bc9e9c148fd4c74
6.0950942,49.4863069,23,Rue Dr Welter,,Dudelange,,,3595,57234,daaa84d49bb70f09
6.243336,49.7704654,22,Am Duerf,,Heffingen,,,7651,119743,ba950d4ba6f78792
6.2488437,49.5321501,5,Am Felteseck,,Filsdorf,,,5741,205342,4a7e003e8325fa85
6.0091004,49.5053626,48,Avenue de la Libération,,Schifflange,,,3850,93538,dff7f922f209b9e5
5.9210078,49.5714306,2,Cité Bommelscheuer,,Hautcharage,,,4953,28637,3def06fa06fa50c4
6.1296832,50.0363002,38,Haaptstrooss,,Rodershausen,,,9839,184093,71106f0472cb1dc0
5.9020813,49.9233695,8,An der Driicht,,Kaundorf,,,9662,226278,12536adac08759a1
6.0977091,49.833341,31,Route de Luxembourg,,Schieren,,,9125,139516,aaafa827f58ffbaa
6.1531839,49.5970901,259,Rue d'Itzig,,Luxembourg,,,1815,9081,6f48ccedf94d9dfb
5.964882,49.8297327,2B,Rue de Wiltz,,Grosbous,,,9154,205401,e62489e5974e08f5
6.2375807,49.6905851,1,Groebierg,,Gonderange,,,6181,163980,d08ae995fd7caffc
6.1126379,49.6177641,131,Rue Jean-François Boch,,Luxembourg,,,1244,21156,6afe1b603828ff41
6.1125852,49.5890449,12,Kohlenberg,,Luxembourg,,,1870,3851,882522413916fe46
6.1070897,49.5132309,4,Rue du Verger,,Bettembourg,,,3283,176386,94e57a5885c1ec88
5.9753393,49.4983298,39,Rue de l'Usine,,Esch-sur-Alzette,,,4340,63692,b784d0c140d21b8b
6.0008885,49.8335512,17,Floetz,,Mertzig,,,9168,138736,706aad2336e46d8a
6.2822185,49.8203225,5,Rue du Hallerbach,,Haller,,,6370,158610,1fc9c27a5e2b6230
6.2429961,49.647512,116,Um Trenker,,Senningen,,,6962,224385,b28e93e4cfa97141
6.0287162,49.5061132,11,Schefflengerbierg,,Schifflange,,,3825,94191,da472e24003e59b1
6.1218199,49.649546,56,Rue Michel Rodange,,Bereldange,,,7248,115207,8b4075988fa2a1e5
6.1140443,49.6097647,18,Rue des Franciscaines,,Luxembourg,,,1539,15890,5ca08b66b416d878
6.0968269,49.8332034,6,Impasse Witry,,Schieren,,,9125,139421,4fb0d5f2c27bd040
6.0811121,49.9491513,57,Haaptstrooss,,Hoscheid,,,9376,138234,3dc3136f0d1bf5c8
6.1297082,49.6640965,28,Rue Paul Elvinger,,Helmsange,,,7246,116154,9bcf4d1e6580ab23
6.0550499,50.0958453,48,Hauptstrooss,,Hupperdange,,,9755,210163,3b5f7eb931fb1d2a
6.1002345,49.6160098,271,Route d'Arlon,,Luxembourg,,,1150,4919,af62791857b3abb3
5.8786273,49.5529483,57,Route de Niederkorn,,Pétange,,,4762,78001,343843f93eb88d8b
6.1252776,49.6203827,12,Rue Guillaume Schneider,,Luxembourg,,,2522,20148,008bf7d711cd4b0c
6.1611695,49.8701435,1,Rue du Moulin,,Diekirch,,,9258,192221,106bdd6d742bd8b4
6.1606743,49.8681848,22,Rue de l'Etoile,,Diekirch,,,9229,132020,9779e86f6c78588d
5.7604876,49.8277276,2,Rue de Martelange,,Wolwelange,,,8833,143161,8183bd03f31e3118
6.3661801,49.4734199,31,Wäistrooss,,Schengen,,,5445,171698,ed1fba5d89c464aa
6.3777008,49.5524551,10,Rue des Bâteliers,,Remich,,,5511,172776,5473842183f71520
6.1151207,49.6133499,20,Val Ste Croix,,Luxembourg,,,1370,26479,08187b028c30beb1
6.4725436,49.7827653,4,Rue de Boursdorf,,Dickweiler,,,6557,157606,bb1f2cd90db77562
6.2473168,49.7138491,5,Rue Kremerich,,Junglinster,,,6133,163467,bb71efdcd99f75de
6.1309311,49.5938245,10,Rue Julien Vesque,,Luxembourg,,,2668,22066,0f0861644ce3b35c
5.95318,49.7973563,18,Rue St. Roch,,Reimberg,,,8614,141259,3a95adf1acec5546
5.9760209,49.4989801,36,Rue de l'Usine,,Esch-sur-Alzette,,,4340,63737,f374b589666a02b8
6.1490664,49.867044,8,Rue du Cimetière,,Diekirch,,,9215,132354,f601194a29137766
5.9948152,49.5753346,64,Route des Trois Cantons,,Bettange-sur-Mess,,,4970,30251,e1d4eecd9342d11b
6.2685181,49.8653858,2,Rue de Beaufort,,Reisdorf,,,9391,197075,0bd990841d312777
5.9330781,49.9672138,15,Avenue Nicolas Kreins,,Wiltz,,,9536,149301,4e40f99b4bae5899
6.365815,49.600794,24,Rue de Canach,,Lenningen,,,5430,193697,fdf716a02a57f69f
5.8984333,50.0462095,18A,Maison,,Hamiville,,,9752,193022,321b5b67f3d708e3
6.032611,49.6696798,14,Rue du Centre,,Kehlen,,,8282,33886,b8f7e8ad13240f22
6.0670591,49.6201475,2B,Rue Anne Beffort,,Strassen,,,8098,233946,7bacfd5413f93501
6.1322598,49.6544038,66,Rue de l'Eglise,,Walferdange,,,7224,116626,2b13ecb8ac363b99
5.9015224,49.8396167,60,Rue Principale,,Wahl,,,8838,176121,6d771981248085da
5.9224152,49.5030494,20,Rue Marguerite Thomas-Clement,,Belvaux,,,4429,186913,bdbd09d5dee758dc
6.2291234,49.5824077,10,In der Grof,,Contern,,,5322,98602,d8bc364800791fc2
5.923826,49.6628166,2,Rue des Genêts,,Steinfort,,,8447,41229,7a9f8e3f3202ad5c
6.1178979,49.6227164,14,Rue Jean-Baptiste Fresez,,Luxembourg,,,1542,21035,091616121bbc8450
6.0316357,49.5314018,55,Grand-Rue,,Pontpierre,,,4393,76038,fc163b6353602b24
6.0788048,49.6195779,118,Route d'Arlon,,Strassen,,,8008,112347,82b146a4faa5ca1f
6.0742198,49.7907788,57,Rue des Moulins,,Bissen,,,7784,118576,a36d7d3f6142d678
6.1535048,49.5973405,261,Rue d'Itzig,,Luxembourg,,,1815,9082,5ea0df28f48b14bd
6.0030915,49.72004,4A,Rue de Luxembourg,,Tuntange,,,7480,215543,96dd70ab9f1f6188
6.0096009,49.7512244,15,Helperterwee,,Buschdorf,,,7418,119435,e16df07528a4a6fb
6.1368019,49.6660831,27A,Rue Jean Mercatoris,,Helmsange,,,7237,116117,c56c21916fa21c3a
6.1413926,49.5700512,25,Op der Hobuch,,Fentange,,,5832,100836,bce0684f2001a7c1
6.0835818,49.9032941,2,Bramillen,,Michelau,,,9172,223618,8fd04e8eb154c2d7
6.0473295,49.6056937,7,Rue Alphonse Munchen,,Bertrange,,,8082,96558,940cc2734a18cc6f
6.1421465,49.6138415,19,Montée de Clausen,,Luxembourg,,,1343,3955,28766cfa1f62581c
5.8726649,49.8129414,8,Rue de Hostert,,Folschette,,,8835,175021,1f8cbe811db3e082
6.3519609,49.6177395,50,Burgaass,,Gostingen,,,5425,160561,f139e084f47f8880
6.0348838,49.47534,19,Rue de la Gare,,Tétange,,,3771,72263,ce49d4b5870a1d2d
6.0588552,49.5185104,35,Rue de la Résistance,,Huncherange,,,3340,44683,2ea62c507f2bc279
6.3212408,49.8375297,9A,Route de Dillingen,,Grundhof (Beaufort),,,6360,217117,b2c7e35c808f6733
5.9156276,49.5656128,9,Rue Dicks-Lentz,,Bascharage,,,4952,27922,23ebe1faface90e7
5.9227699,49.6629903,4,Rue des Aubépines,,Steinfort,,,8448,41182,1e042bbb10844004
6.0847002,49.4794859,7,Rue Jean Jaurès,,Dudelange,,,3490,58362,ab8095db8dba23fb
6.2351182,49.6524166,25,Um Charly,,Senningerberg,,,1670,107470,63436ee279de9a5d
6.1598167,49.8678006,36,Grand-Rue,,Diekirch,,,9240,131374,5102947b441567ab
5.942376,49.5164468,83,Rue Michel Rodange,,Soleuvre,,,4482,93152,ea56396428f6ffb6
6.085397,49.47085,21,Rue de l'Hôpital,,Dudelange,,,3488,55608,565cb69fce50fee8
5.9921202,49.5086936,16,Rue Aline de Saint-Hubert,,Esch-sur-Alzette,,,4139,181243,378c21b6732ecb41
5.8735293,49.5545948,2,Rue Neuve,,Pétange,,,4759,79968,c1f98580a4fd2132
6.1199867,49.6130552,58,Boulevard Grande-Duchesse Charlotte,,Luxembourg,,,1330,2587,c407f5ae652af549
6.3165573,49.5057116,2,Op der Zoepp,,Elvange (Schengen),,,5692,228780,a2e7a3aa81264f5c
6.0807803,49.6569037,37,Rue de l'Ecole,,Bridel,,,8128,234299,a23026dcc555b89a
5.9408447,49.9724601,6,Rue Knupp,,Weidingen,,,9535,149217,c7bc226a8741e1d0
6.0236973,49.6313046,19,Rue Cunégonde,,Mamer,,,8221,193611,c4cade32c9f9b722
6.1299161,49.6102762,40,Place Guillaume II,,Luxembourg,,,1648,4644,3043d3fc409f9bb4
5.8854151,49.5224025,14,Rue J.-F. Kennedy,,Differdange,,,4599,50293,fdfb955cc318a9e1
5.9826936,49.4915051,6,Dieswee,,Esch-sur-Alzette,,,4080,61456,0abc2d502a07417f
5.9142983,49.6563579,48,Rue de Kleinbettingen,,Steinfort,,,8436,40949,7979c4dc4c8d03c8
5.8862709,49.5243549,53,Rue des Jardins,,Differdange,,,4591,48971,5c543a8ccdef09c8
6.1572146,49.6207239,50,Rue des Eglantiers,,Luxembourg,,,1457,15778,25373001e01db511
6.0605458,50.0530396,16,Haaptstrooss,,Marnach,,,9764,128514,0fde030b4feef212
6.4438511,49.6785011,19,Rue des Tisserands,,Grevenmacher,,,6792,161763,cb06ac8475208f35
6.1704097,49.7487095,8,Rue de l'Ecole,,Schoos,,,7475,177376,fe668e8419c7e1b6
6.1172505,49.6318355,47,Rue Jean-Pierre Huberty,,Luxembourg,,,1742,21527,846033724ecacdab
6.1377881,49.6734801,2B,Rue du Chemin de Fer,,Heisdorf,,,7318,110373,c51317c50e624e20
5.9227839,49.5472085,87,Rue Emmanuel Servais,,Sanem,,,4989,90414,30fa80c4073917de
6.0883497,49.6621423,52,Rue de Schoenfels,,Bridel,,,8151,36513,e65d9ddf1ab2916e
6.0819069,49.9504627,3,Braaken,,Hoscheid,,,9376,138138,022ad8a837d94445
6.1451282,49.5818467,34,Rue Ernest Beres,,Howald,,,1232,103387,a9612c289d57d3a5
6.0089289,49.799027,7,Rue de la Chapelle,,Vichten,,,9188,145250,38601d6ac1e40210
6.079569,49.6539818,25,Allée St. Hubert,,Bridel,,,8138,36069,2fa0b4b3be694994
5.9606281,49.8294411,38,Rue de Bastogne,,Grosbous,,,9154,143530,fbac84574e8f15b6
6.160067,49.6230906,54,Rue des Muguets,,Luxembourg,,,2167,16473,84cee745a6ed2ae7
6.1517094,49.6235823,2,Rue Léon Hengen,,Luxembourg,,,1745,22334,2c7c15d897773a45
6.1387401,49.600661,4,Rue Félix de Blochausen,,Luxembourg,,,1243,19387,65e069e6be18d500
6.083131,49.4894637,100,Route de Luxembourg,,Dudelange,,,3515,54637,165db5782563c3ab
6.1161838,49.6161489,63,Rue Jean-François Boch,,Luxembourg,,,1244,21122,b5ba701d56f3fd84
6.0743269,49.4825478,109,Rue Ste Barbe,,Dudelange,,,3416,60193,4bfabbd94701790d
6.0124204,49.5051613,48,Rue de l'Eglise,,Schifflange,,,3833,94997,c3d0112cfb5ee69c
6.0956068,49.6015942,13,Rue de Virton,,Luxembourg,,,2672,14986,bd829c8e95e5345c
6.2181504,49.8088754,8,Rue Knaeppchen,,Medernach,,,7663,138651,d8f50796493c755a
6.120725,49.6817369,8,Bei de Weieren,,Mullendorf,,,7346,233753,08ff8d0f42c6c889
6.2186032,49.5976892,7,Rue Edmond Reuter,,Contern,,,5326,183621,8afaad9b6b4582f1
6.1336277,49.6283033,5,Raspert,,Luxembourg,,,2414,4734,356a572688c1ee1a
5.9634607,49.6978909,4,Laangefuert,,Septfontaines,,,8396,182416,502a6a0dda51f6eb
6.0145235,49.6308908,45,Rue des Eglantiers,,Mamer,,,8227,38691,fdeb6484820b3b7f
5.8822836,49.8990208,14,Burwiss,,Insenborn,,,9660,219545,654f6efeb2b7fe92
5.9572293,49.5789451,6,Rue Charly Gaul,,Schouweiler,,,4968,224183,9841941742670334
6.0628092,50.0542163,10A,Haaptstrooss,,Marnach,,,9764,128520,1426727c4c4ca743
6.2843257,49.5696292,2,Rue de Canach,,Roedt,,,5442,173661,6dfbc3c3d0133243
6.0106926,49.5046166,19,Rue de l'Eglise,,Schifflange,,,3833,94954,593e8a4e4d5c0d15
6.1629809,49.5643009,489,Route de Thionville,,Alzingen,,,5887,100078,44e16e4b170d3935
6.0751735,49.6152278,6,Rue de la Grève,,Strassen,,,8020,112657,a0121d7aeb2f9ea9
5.9133547,49.5630332,23,Rue Pierre Clement,,Bascharage,,,4916,28309,5974e0dc4908667b
6.0186432,49.5069155,6,Rue de Noertzange,,Schifflange,,,3860,95306,8797f0f2c47c0dd4
5.84062,49.5449966,4,Rue de l'Ecole,,Rodange,,,4813,81106,3beaefc3d5e60822
6.0988413,49.8483635,42,Rue Pierre Wiser,,Ettelbruck,,,9092,181370,56345276d6e737e6
6.1580174,49.6073955,8,Rue Eugène Wolff,,Luxembourg,,,2736,19217,e458cb09eb7a28b4
6.4454324,49.6784008,10,Route du Vin,,Grevenmacher,,,6794,161264,e110d5f7d4131797
6.0930622,49.7203163,1A,Rue de Keispelt,,Schoenfels,,,7473,195439,75e6ba5f3d625461
6.0851664,49.4799366,86,Avenue Grande-Duchesse Charlotte,,Dudelange,,,3440,53615,e8d7ba75b1a5e7b1
6.2042074,49.5455827,5,Rue des Bleuets,,Weiler-la-Tour,,,5776,230256,a86f6b91578e36b6
6.0159519,50.1333089,1,An der Driicht,,Drinklange,,,9952,175954,b06ab5a1479650d9
5.9060466,50.0196225,13,Maison,,Brachtenbach,,,9641,188116,aace5a43c26abf48
5.944022,49.5156806,54,Rue Michel Rodange,,Belvaux,,,4482,88969,920ef20f6a239ed0
6.087804,50.013757,3,Cité Thiergart,,Hosingen,,,9807,127976,f36dbc5d35e09aad
6.2102736,49.5515721,11,Rue an den Achten,,Hassel,,,5761,186769,89547d57310fa921
6.1710013,49.585494,12,Rue de Hesperange,,Itzig,,,5959,104025,99299cb1fe6ae7cf
6.2523244,49.6897988,24,Cité Gringert,,Gonderange,,,6187,163929,be8fea52a021fef2
6.0898506,49.6154163,128,Rue du Kiem,,Strassen,,,8030,113620,acd6024874b8572d
6.0011094,49.6435167,4,Rue Hireknapp,,Capellen,,,8326,197274,2bf656e9f409d8ef
6.201442,49.5422667,11,Rue Emil Marx,,Weiler-la-Tour,,,5775,214993,0062345821b8d909
6.0717417,49.6654371,3,Rue du Moulin,,Kopstal,,,8187,232504,0f2483410c682fdf
6.0995092,49.6097056,273,Avenue Gaston Diderich,,Luxembourg,,,1420,1048,96c28202ad4aa596
6.2673505,49.5051322,18A,Rue du Moulin,,Mondorf-les-Bains,,,5638,171241,671d6cff9941a716
6.1502028,49.8696655,21,Rue du Kockelberg,,Diekirch,,,9252,132482,5a3cd44e3a1a4adb
6.1393963,49.5848895,29,Rue du 9 mai 1944,,Howald,,,2112,103205,586d8a57c54a55f6
6.059855,49.6932659,9,Rue Kosselt,,Meispelt,,,8292,34336,dd17b56807bcce0d
6.1309526,49.6695809,4,Rue Tony Erpelding,,Heisdorf,,,7349,110587,35c864c0f82fdefc
5.9152786,49.5191006,26,Rue Léon Kauffman,,Soleuvre,,,4405,189658,9978587ff1a69204
5.8932056,49.5080867,30,Rue Dalscheidt,,Oberkorn,,,4538,47493,e069ae385defd7ec
